O3B MPOWER F1           
1 54755U 22174A   24235.83792479 -.00000018  00000+0  00000+0 0  9995
2 54755   0.0575 346.2556 0006673 160.0012  92.3745  5.00113739 32170
